start=new Date('2021-09-06T00:00:00.000Z').valueOf();
sats=[{"MEAN_MOTION":"15.06400087","RA_OF_ASC_NODE":"50.6593","LAUNCH_DATE":"2020-10-18","REF_FRAME":"TEME","BSTAR":"0.00001562900000","PERIAPSIS":"542.794","MEAN_ELEMENT_THEORY":"SGP4","CENTER_NAME":"EARTH","OBJECT_TYPE":"PAYLOAD","MEAN_MOTION_DDOT":"0.0000000000000","INCLINATION":"53.0547","SITE":"AFETR","SEMIMAJOR_AXIS":"6925.348","ELEMENT_SET_NO":"999","REV_AT_EPOCH":"4932","OBJECT_NAME":"STARLINK-1804","RCS_SIZE":"LARGE","EPOCH":"2021-09-05T17:13:46.702560","EPHEMERIS_TYPE":"0","PERIOD":"95.592","DECAY_DATE":null,"GP_ID":"184165733","TLE_LINE2":"2 46704  53.0547  50.6593 0006381  67.9231 292.2435 15.06400087 49327","NORAD_CAT_ID":"46704","TLE_LINE1":"1 46704U 20073AL  21248.71790165 -.00000051  00000-0  15629-4 0  9990","MEAN_MOTION_DOT":"-0.00000051","TIME_SYSTEM":"UTC","MEAN_ANOMALY":"292.2435","OBJECT_ID":"2020-073AL","APOAPSIS":"551.632","COUNTRY_CODE":"US","ARG_OF_PERICENTER":"67.9231","FILE":"3109348","ECCENTRICITY":"0.00063810","CLASSIFICATION_TYPE":"U"},{"EPOCH":"2021-09-05T14:21:56.473056","RCS_SIZE":"LARGE","EPHEMERIS_TYPE":"0","PERIOD":"95.592","DECAY_DATE":null,"TLE_LINE2":"2 46705  53.0541  86.2058 0002043  89.8019 270.3204 15.06408056 48819","GP_ID":"184166485","NORAD_CAT_ID":"46705","TLE_LINE1":"1 46705U 20073AM  21248.59857029  .00001916  00000-0  14748-3 0  9990","TIME_SYSTEM":"UTC","MEAN_MOTION_DOT":"0.00001916","MEAN_ANOMALY":"270.3204","OBJECT_ID":"2020-073AM","APOAPSIS":"548.604","COUNTRY_CODE":"US","FILE":"3109348","ARG_OF_PERICENTER":"89.8019","CLASSIFICATION_TYPE":"U","ECCENTRICITY":"0.00020430","RA_OF_ASC_NODE":"86.2058","MEAN_MOTION":"15.06408056","LAUNCH_DATE":"2020-10-18","REF_FRAME":"TEME","BSTAR":"0.00014748000000","PERIAPSIS":"545.774","MEAN_ELEMENT_THEORY":"SGP4","CENTER_NAME":"EARTH","MEAN_MOTION_DDOT":"0.0000000000000","OBJECT_TYPE":"PAYLOAD","INCLINATION":"53.0541","SITE":"AFETR","ELEMENT_SET_NO":"999","SEMIMAJOR_AXIS":"6925.324","OBJECT_NAME":"STARLINK-1805","REV_AT_EPOCH":"4881"},{"TLE_LINE2":"2 46706  53.0539  70.4335 0002008  90.2760 269.8459 15.06403404 49054","GP_ID":"184166732","NORAD_CAT_ID":"46706","DECAY_DATE":null,"TLE_LINE1":"1 46706U 20073AN  21248.77135679  .00001298  00000-0  10601-3 0  9998","RCS_SIZE":"LARGE","EPOCH":"2021-09-05T18:30:45.226656","PERIOD":"95.592","EPHEMERIS_TYPE":"0","COUNTRY_CODE":"US","APOAPSIS":"548.594","ECCENTRICITY":"0.00020080","CLASSIFICATION_TYPE":"U","ARG_OF_PERICENTER":"90.2760","FILE":"3109348","MEAN_MOTION_DOT":"0.00001298","TIME_SYSTEM":"UTC","OBJECT_ID":"2020-073AN","MEAN_ANOMALY":"269.8459","PERIAPSIS":"545.813","BSTAR":"0.00010601000000","MEAN_ELEMENT_THEORY":"SGP4","MEAN_MOTION":"15.06403404","RA_OF_ASC_NODE":"70.4335","REF_FRAME":"TEME","LAUNCH_DATE":"2020-10-18","SITE":"AFETR","REV_AT_EPOCH":"4905","OBJECT_NAME":"STARLINK-1807","ELEMENT_SET_NO":"999","SEMIMAJOR_AXIS":"6925.338","CENTER_NAME":"EARTH","INCLINATION":"53.0539","OBJECT_TYPE":"PAYLOAD","MEAN_MOTION_DDOT":"0.0000000000000"},{"COUNTRY_CODE":"US","APOAPSIS":"552.121","CLASSIFICATION_TYPE":"U","ECCENTRICITY":"0.00071180","FILE":"3109252","ARG_OF_PERICENTER":"67.0117","TIME_SYSTEM":"UTC","MEAN_MOTION_DOT":"-0.00001020","OBJECT_ID":"2020-073AP","MEAN_ANOMALY":"293.1622","TLE_LINE2":"2 46707  53.0552  51.3771 0007118  67.0117 293.1622 15.06407167 49307","NORAD_CAT_ID":"46707","GP_ID":"184140545","DECAY_DATE":null,"TLE_LINE1":"1 46707U 20073AP  21248.56308445 -.00001020  00000-0 -49357-4 0  9995","EPOCH":"2021-09-05T13:30:50.496480","RCS_SIZE":"LARGE","PERIOD":"95.592","EPHEMERIS_TYPE":"0","SITE":"AFETR","OBJECT_NAME":"STARLINK-1808","REV_AT_EPOCH":"4930","ELEMENT_SET_NO":"999","SEMIMAJOR_AXIS":"6925.327","CENTER_NAME":"EARTH","INCLINATION":"53.0552","MEAN_MOTION_DDOT":"0.0000000000000","OBJECT_TYPE":"PAYLOAD","PERIAPSIS":"542.262","BSTAR":"-0.00004935700000","MEAN_ELEMENT_THEORY":"SGP4","RA_OF_ASC_NODE":"51.3771","MEAN_MOTION":"15.06407167","REF_FRAME":"TEME","LAUNCH_DATE":"2020-10-18"},{"BSTAR":"-0.00006228600000","PERIAPSIS":"542.639","MEAN_ELEMENT_THEORY":"SGP4","MEAN_MOTION":"15.06395121","RA_OF_ASC_NODE":"50.7442","LAUNCH_DATE":"2020-10-18","REF_FRAME":"TEME","SITE":"AFETR","ELEMENT_SET_NO":"999","SEMIMAJOR_AXIS":"6925.364","REV_AT_EPOCH":"4932","OBJECT_NAME":"STARLINK-1809","CENTER_NAME":"EARTH","OBJECT_TYPE":"PAYLOAD","MEAN_MOTION_DDOT":"0.0000000000000","INCLINATION":"53.0556","DECAY_DATE":null,"TLE_LINE2":"2 46708  53.0556  50.7442 0006627  66.6760 293.4926 15.06395121 49321","NORAD_CAT_ID":"46708","GP_ID":"184165233","TLE_LINE1":"1 46708U 20073AQ  21248.69947493 -.00001212  00000-0 -62286-4 0  9991","RCS_SIZE":"LARGE","EPOCH":"2021-09-05T16:47:14.633952","EPHEMERIS_TYPE":"0","PERIOD":"95.592","APOAPSIS":"551.818","COUNTRY_CODE":"US","ARG_OF_PERICENTER":"66.6760","FILE":"3109348","ECCENTRICITY":"0.00066270","CLASSIFICATION_TYPE":"U","MEAN_MOTION_DOT":"-0.00001212","TIME_SYSTEM":"UTC","MEAN_ANOMALY":"293.4926","OBJECT_ID":"2020-073AQ"},{"MEAN_MOTION_DOT":"-0.00000476","TIME_SYSTEM":"UTC","MEAN_ANOMALY":"277.8695","OBJECT_ID":"2020-073AR","APOAPSIS":"548.516","COUNTRY_CODE":"US","ARG_OF_PERICENTER":"82.2512","FILE":"3109348","ECCENTRICITY":"0.00019190","CLASSIFICATION_TYPE":"U","RCS_SIZE":"LARGE","EPOCH":"2021-09-05T16:38:33.244512","EPHEMERIS_TYPE":"0","PERIOD":"95.592","DECAY_DATE":null,"TLE_LINE2":"2 46709  53.0539  85.7690 0001919  82.2512 277.8695 15.06408812 48829","NORAD_CAT_ID":"46709","GP_ID":"184165985","TLE_LINE1":"1 46709U 20073AR  21248.69344033 -.00000476  00000-0 -13014-4 0  9999","CENTER_NAME":"EARTH","OBJECT_TYPE":"PAYLOAD","MEAN_MOTION_DDOT":"0.0000000000000","INCLINATION":"53.0539","SITE":"AFETR","ELEMENT_SET_NO":"999","SEMIMAJOR_AXIS":"6925.322","REV_AT_EPOCH":"4882","OBJECT_NAME":"STARLINK-1810","MEAN_MOTION":"15.06408812","RA_OF_ASC_NODE":"85.7690","LAUNCH_DATE":"2020-10-18","REF_FRAME":"TEME","BSTAR":"-0.00001301400000","PERIAPSIS":"545.858","MEAN_ELEMENT_THEORY":"SGP4"},{"SITE":"AFETR","ELEMENT_SET_NO":"999","SEMIMAJOR_AXIS":"6925.360","REV_AT_EPOCH":"4883","OBJECT_NAME":"STARLINK-1811","CENTER_NAME":"EARTH","OBJECT_TYPE":"PAYLOAD","MEAN_MOTION_DDOT":"0.0000000000000","INCLINATION":"53.0551","BSTAR":"-0.00001685000000","PERIAPSIS":"545.855","MEAN_ELEMENT_THEORY":"SGP4","RA_OF_ASC_NODE":"85.6534","MEAN_MOTION":"15.06396260","LAUNCH_DATE":"2020-10-18","REF_FRAME":"TEME","APOAPSIS":"548.595","COUNTRY_CODE":"US","ARG_OF_PERICENTER":"79.4642","FILE":"3109348","ECCENTRICITY":"0.00019780","CLASSIFICATION_TYPE":"U","MEAN_MOTION_DOT":"-0.00000533","TIME_SYSTEM":"UTC","MEAN_ANOMALY":"280.6570","OBJECT_ID":"2020-073AS","DECAY_DATE":null,"TLE_LINE2":"2 46710  53.0551  85.6534 0001978  79.4642 280.6570 15.06396260 48836","GP_ID":"184166232","NORAD_CAT_ID":"46710","TLE_LINE1":"1 46710U 20073AS  21248.72388506 -.00000533  00000-0 -16850-4 0  9993","RCS_SIZE":"LARGE","EPOCH":"2021-09-05T17:22:23.669184","EPHEMERIS_TYPE":"0","PERIOD":"95.592"},{"SITE":"AFETR","SEMIMAJOR_AXIS":"6925.404","ELEMENT_SET_NO":"999","REV_AT_EPOCH":"4905","OBJECT_NAME":"STARLINK-1813","CENTER_NAME":"EARTH","OBJECT_TYPE":"PAYLOAD","MEAN_MOTION_DDOT":"0.0000000000000","INCLINATION":"53.0546","BSTAR":"0.00034670000000","PERIAPSIS":"546.252","MEAN_ELEMENT_THEORY":"SGP4","RA_OF_ASC_NODE":"70.4745","MEAN_MOTION":"15.06381847","LAUNCH_DATE":"2020-10-18","REF_FRAME":"TEME","APOAPSIS":"548.287","COUNTRY_CODE":"US","ARG_OF_PERICENTER":"110.6075","FILE":"3109348","ECCENTRICITY":"0.00014690","CLASSIFICATION_TYPE":"U","MEAN_MOTION_DOT":"0.00004884","TIME_SYSTEM":"UTC","MEAN_ANOMALY":"249.5071","OBJECT_ID":"2020-073AT","DECAY_DATE":null,"NORAD_CAT_ID":"46711","TLE_LINE2":"2 46711  53.0546  70.4745 0001469 110.6075 249.5071 15.06381847 49050","GP_ID":"184165484","TLE_LINE1":"1 46711U 20073AT  21248.76398396  .00004884  00000-0  34670-3 0  9996","RCS_SIZE":"LARGE","EPOCH":"2021-09-05T18:20:08.214144","EPHEMERIS_TYPE":"0","PERIOD":"95.593"},{"PERIAPSIS":"545.802","BSTAR":"0.00008007100000","MEAN_ELEMENT_THEORY":"SGP4","MEAN_MOTION":"15.06403014","RA_OF_ASC_NODE":"70.3311","REF_FRAME":"TEME","LAUNCH_DATE":"2020-10-18","SITE":"AFETR","REV_AT_EPOCH":"4905","OBJECT_NAME":"STARLINK-1814","ELEMENT_SET_NO":"999","SEMIMAJOR_AXIS":"6925.339","CENTER_NAME":"EARTH","INCLINATION":"53.0556","OBJECT_TYPE":"PAYLOAD","MEAN_MOTION_DDOT":"0.0000000000000","GP_ID":"184165734","TLE_LINE2":"2 46712  53.0556  70.3311 0002025  90.1878 269.9343 15.06403014 49051","NORAD_CAT_ID":"46712","DECAY_DATE":null,"TLE_LINE1":"1 46712U 20073AU  21248.79621442  .00000911  00000-0  80071-4 0  9995","RCS_SIZE":"LARGE","EPOCH":"2021-09-05T19:06:32.925888","PERIOD":"95.592","EPHEMERIS_TYPE":"0","COUNTRY_CODE":"US","APOAPSIS":"548.607","ECCENTRICITY":"0.00020250","CLASSIFICATION_TYPE":"U","ARG_OF_PERICENTER":"90.1878","FILE":"3109348","MEAN_MOTION_DOT":"0.00000911","TIME_SYSTEM":"UTC","OBJECT_ID":"2020-073AU","MEAN_ANOMALY":"269.9343"},{"TIME_SYSTEM":"UTC","MEAN_MOTION_DOT":"0.00000707","OBJECT_ID":"2020-073AV","MEAN_ANOMALY":"272.4524","COUNTRY_CODE":"US","APOAPSIS":"548.664","CLASSIFICATION_TYPE":"U","ECCENTRICITY":"0.00020880","FILE":"3109252","ARG_OF_PERICENTER":"87.6704","EPOCH":"2021-09-05T13:01:41.451168","RCS_SIZE":"LARGE","PERIOD":"95.592","EPHEMERIS_TYPE":"0","GP_ID":"184140045","TLE_LINE2":"2 46713  53.0564  71.4673 0002088  87.6704 272.4524 15.06398423 49015","NORAD_CAT_ID":"46713","DECAY_DATE":null,"TLE_LINE1":"1 46713U 20073AV  21248.54284087  .00000707  00000-0  66400-4 0  9992","CENTER_NAME":"EARTH","INCLINATION":"53.0564","MEAN_MOTION_DDOT":"0.0000000000000","OBJECT_TYPE":"PAYLOAD","SITE":"AFETR","OBJECT_NAME":"STARLINK-1815","REV_AT_EPOCH":"4901","SEMIMAJOR_AXIS":"6925.353","ELEMENT_SET_NO":"999","RA_OF_ASC_NODE":"71.4673","MEAN_MOTION":"15.06398423","REF_FRAME":"TEME","LAUNCH_DATE":"2020-10-18","PERIAPSIS":"545.772","BSTAR":"0.00006640000000","MEAN_ELEMENT_THEORY":"SGP4"}];
